{"type": "FeatureCollection", "features": [ {"type": "Feature", "properties": {"norad_id": 35475, "name": "COSMOS 2251 DEB", "group": "cosmos-2251-debris", "lat": -11.236477812257926, "lon": 135.53371003092593, "alt_km": 675.2653996538356, "timestamp": "2025-12-26T13:39:19.376294+00:00", "meta": {"OBJECT_NAME": "COSMOS 2251 DEB", "OBJECT_ID": "1993-036ALV", "EPOCH": "2025-12-24T15:58:31.837728", "MEAN_MOTION": 14.69981739, "ECCENTRICITY": 0.00200174, "INCLINATION": 74.0221, "RA_OF_ASC_NODE": 142.4886, "ARG_OF_PERICENTER": 215.4877, "MEAN_ANOMALY": 144.4964, "EPHEMERIS_TYPE": 0, "CLASSIFICATION_TYPE": "U", "NORAD_CAT_ID": 35475, "ELEMENT_SET_NO": 999, "REV_AT_EPOCH": 65792, "BSTAR": 0.0021631637, "MEAN_MOTION_DOT": 0.00013001, "MEAN_MOTION_DDOT": 0}, "tle": {"line1": "1 35475U 93036ALV 25358.66564627  .00013001  00000+0  21632-2 0  9990", "line2": "2 35475  74.0221 142.4886 0020017 215.4877 144.4964 14.69981739657927"}}, "geometry": {"type": "Point", "coordinates": [135.53371003092593, -11.236477812257926]}}, {"type": "Feature", "properties": {"norad_id": 35476, "name": "COSMOS 2251 DEB", "group": "cosmos-2251-debris", "lat": 47.284154460258705, "lon": -164.37476010700647, "alt_km": 644.1022635221761, "timestamp": "2025-12-26T13:39:19.376304+00:00", "meta": {"OBJECT_NAME": "COSMOS 2251 DEB", "OBJECT_ID": "1993-036ALW", "EPOCH": "2025-12-24T22:18:15.071040", "MEAN_MOTION": 14.75917923, "ECCENTRICITY": 0.00184576, "INCLINATION": 73.9777, "RA_OF_ASC_NODE": 36.9779, "ARG_OF_PERICENTER": 13.4242, "MEAN_ANOMALY": 48.0996, "EPHEMERIS_TYPE": 0, "CLASSIFICATION_TYPE": "U", "NORAD_CAT_ID": 35476, "ELEMENT_SET_NO": 999, "REV_AT_EPOCH": 88067, "BSTAR": 0.0016886358, "MEAN_MOTION_DOT": 0.00011625, "MEAN_MOTION_DDOT": 0}, "tle": {"line1": "1 35476U 93036ALW 25358.92934110  .00011625  00000+0  16886-2 0  9993", "line2": "2 35476  73.9777  36.9779 0018457  13.4242  48.0996 14.75917923880672"}}, "geometry": {"type": "Point", "coordinates": [-164.37476010700647, 47.284154460258705]}}, {"type": "Feature", "properties": {"norad_id": 35580, "name": "COSMOS 2251 DEB", "group": "cosmos-2251-debris", "lat": -21.175364026862322, "lon": 148.78210067201573, "alt_km": 1160.5389588120333, "timestamp": "2025-12-26T13:39:19.376314+00:00", "meta": {"OBJECT_NAME": "COSMOS 2251 DEB", "OBJECT_ID": "1993-036ALX", "EPOCH": "2025-12-22T19:33:13.925664", "MEAN_MOTION": 13.83921158, "ECCENTRICITY": 0.0280776, "INCLINATION": 73.9007, "RA_OF_ASC_NODE": 161.5885, "ARG_OF_PERICENTER": 164.8747, "MEAN_ANOMALY": 196.0996, "EPHEMERIS_TYPE": 0, "CLASSIFICATION_TYPE": "U", "NORAD_CAT_ID": 35580, "ELEMENT_SET_NO": 999, "REV_AT_EPOCH": 62396, "BSTAR": 0.0019852622, "MEAN_MOTION_DOT": 2.966e-05, "MEAN_MOTION_DDOT": 0}, "tle": {"line1": "1 35580U 93036ALX 25356.81474451  .00002966  00000+0  19853-2 0  9997", "line2": "2 35580  73.9007 161.5885 0280776 164.8747 196.0996 13.83921158623967"}}, "geometry": {"type": "Point", "coordinates": [148.78210067201573, -21.175364026862322]}}, {"type": "Feature", "properties": {"norad_id": 35583, "name": "COSMOS 2251 DEB", "group": "cosmos-2251-debris", "lat": 49.038655625696286, "lon": -150.98493531483368, "alt_km": 1314.3880344431027, "timestamp": "2025-12-26T13:39:19.376324+00:00", "meta": {"OBJECT_NAME": "COSMOS 2251 DEB", "OBJECT_ID": "1993-036AMA", "EPOCH": "2025-12-25T05:29:42.958752", "MEAN_MOTION": 13.55357514, "ECCENTRICITY": 0.0384921, "INCLINATION": 73.9156, "RA_OF_ASC_NODE": 191.7748, "ARG_OF_PERICENTER": 213.8276, "MEAN_ANOMALY": 143.7737, "EPHEMERIS_TYPE": 0, "CLASSIFICATION_TYPE": "U", "NORAD_CAT_ID": 35583, "ELEMENT_SET_NO": 999, "REV_AT_EPOCH": 82581, "BSTAR": 0.00086553, "MEAN_MOTION_DOT": 9.41e-06, "MEAN_MOTION_DDOT": 0}, "tle": {"line1": "1 35583U 93036AMA 25359.22896943  .00000941  00000+0  86553-3 0  9995", "line2": "2 35583  73.9156 191.7748 0384921 213.8276 143.7737 13.55357514825815"}}, "geometry": {"type": "Point", "coordinates": [-150.98493531483368, 49.038655625696286]}}, {"type": "Feature", "properties": {"norad_id": 35585, "name": "COSMOS 2251 DEB", "group": "cosmos-2251-debris", "lat": -70.47474590423424, "lon": -88.83100540650187, "alt_km": 826.6937340181039, "timestamp": "2025-12-26T13:39:19.376335+00:00", "meta": {"OBJECT_NAME": "COSMOS 2251 DEB", "OBJECT_ID": "1993-036AMC", "EPOCH": "2025-12-21T09:07:18.442848", "MEAN_MOTION": 13.75269672, "ECCENTRICITY": 0.03103986, "INCLINATION": 73.9717, "RA_OF_ASC_NODE": 333.9847, "ARG_OF_PERICENTER": 244.5384, "MEAN_ANOMALY": 273.7703, "EPHEMERIS_TYPE": 0, "CLASSIFICATION_TYPE": "U", "NORAD_CAT_ID": 35585, "ELEMENT_SET_NO": 999, "REV_AT_EPOCH": 64182, "BSTAR": 0.00073727274, "MEAN_MOTION_DOT": 9.8e-06, "MEAN_MOTION_DDOT": 0}, "tle": {"line1": "1 35585U 93036AMC 25355.38007457  .00000980  00000+0  73727-3 0  9996", "line2": "2 35585  73.9717 333.9847 0310398 244.5384 273.7703 13.75269672641821"}}, "geometry": {"type": "Point", "coordinates": [-88.83100540650187, -70.47474590423424]}}, {"type": "Feature", "properties": {"norad_id": 35586, "name": "COSMOS 2251 DEB", "group": "cosmos-2251-debris", "lat": 29.053350017164195, "lon": -70.51657372561425, "alt_km": 1214.5580953447334, "timestamp": "2025-12-26T13:39:19.376345+00:00", "meta": {"OBJECT_NAME": "COSMOS 2251 DEB", "OBJECT_ID": "1993-036AMD", "EPOCH": "2025-12-23T04:09:08.280864", "MEAN_MOTION": 13.52091848, "ECCENTRICITY": 0.04042541, "INCLINATION": 74.0191, "RA_OF_ASC_NODE": 285.7624, "ARG_OF_PERICENTER": 158.8543, "MEAN_ANOMALY": 271.7414, "EPHEMERIS_TYPE": 0, "CLASSIFICATION_TYPE": "U", "NORAD_CAT_ID": 35586, "ELEMENT_SET_NO": 999, "REV_AT_EPOCH": 60523, "BSTAR": 0.000355474, "MEAN_MOTION_DOT": 3.71e-06, "MEAN_MOTION_DDOT": 0}, "tle": {"line1": "1 35586U 93036AMD 25357.17301251  .00000371  00000+0  35547-3 0  9997", "line2": "2 35586  74.0191 285.7624 0404254 158.8543 271.7414 13.52091848605231"}}, "geometry": {"type": "Point", "coordinates": [-70.51657372561425, 29.053350017164195]}}, {"type": "Feature", "properties": {"norad_id": 35587, "name": "COSMOS 2251 DEB", "group": "cosmos-2251-debris", "lat": 72.81841599448201, "lon": 99.56304046138787, "alt_km": 696.8025157208849, "timestamp": "2025-12-26T13:39:19.376356+00:00", "meta": {"OBJECT_NAME": "COSMOS 2251 DEB", "OBJECT_ID": "1993-036AME", "EPOCH": "2025-12-24T09:03:29.515680", "MEAN_MOTION": 14.7155971, "ECCENTRICITY": 0.01022451, "INCLINATION": 74.0058, "RA_OF_ASC_NODE": 35.7588, "ARG_OF_PERICENTER": 220.8718, "MEAN_ANOMALY": 138.4757, "EPHEMERIS_TYPE": 0, "CLASSIFICATION_TYPE": "U", "NORAD_CAT_ID": 35587, "ELEMENT_SET_NO": 999, "REV_AT_EPOCH": 66517, "BSTAR": 0.00025641607, "MEAN_MOTION_DOT": 1.692e-05, "MEAN_MOTION_DDOT": 0}, "tle": {"line1": "1 35587U 93036AME 25358.37742495  .00001692  00000+0  25642-3 0  9992", "line2": "2 35587  74.0058  35.7588 0102245 220.8718 138.4757 14.71559710665172"}}, "geometry": {"type": "Point", "coordinates": [99.56304046138787, 72.81841599448201]}}, {"type": "Feature", "properties": {"norad_id": 35593, "name": "COSMOS 2251 DEB", "group": "cosmos-2251-debris", "lat": 73.96721031104288, "lon": 0.4154306934657297, "alt_km": 874.1076832827848, "timestamp": "2025-12-26T13:39:19.376366+00:00", "meta": {"OBJECT_NAME": "COSMOS 2251 DEB", "OBJECT_ID": "1993-036AML", "EPOCH": "2025-12-24T00:35:28.875264", "MEAN_MOTION": 14.25635831, "ECCENTRICITY": 0.01050685, "INCLINATION": 74.0857, "RA_OF_ASC_NODE": 268.1373, "ARG_OF_PERICENTER": 272.0988, "MEAN_ANOMALY": 86.8131, "EPHEMERIS_TYPE": 0, "CLASSIFICATION_TYPE": "U", "NORAD_CAT_ID": 35593, "ELEMENT_SET_NO": 999, "REV_AT_EPOCH": 85226, "BSTAR": 0.00070261528, "MEAN_MOTION_DOT": 1.738e-05, "MEAN_MOTION_DDOT": 0}, "tle": {"line1": "1 35593U 93036AML 25358.02463976  .00001738  00000+0  70262-3 0  9994", "line2": "2 35593  74.0857 268.1373 0105068 272.0988  86.8131 14.25635831852262"}}, "geometry": {"type": "Point", "coordinates": [0.4154306934657297, 73.96721031104288]}}, {"type": "Feature", "properties": {"norad_id": 35594, "name": "COSMOS 2251 DEB", "group": "cosmos-2251-debris", "lat": -73.10701982280463, "lon": -28.31267116977367, "alt_km": 605.2245540988852, "timestamp": "2025-12-26T13:39:19.376376+00:00", "meta": {"OBJECT_NAME": "COSMOS 2251 DEB", "OBJECT_ID": "1993-036AMM", "EPOCH": "2025-12-24T13:41:05.114112", "MEAN_MOTION": 14.88271884, "ECCENTRICITY": 0.00288579, "INCLINATION": 73.806, "RA_OF_ASC_NODE": 82.6068, "ARG_OF_PERICENTER": 193.3523, "MEAN_ANOMALY": 166.6896, "EPHEMERIS_TYPE": 0, "CLASSIFICATION_TYPE": "U", "NORAD_CAT_ID": 35594, "ELEMENT_SET_NO": 999, "REV_AT_EPOCH": 88361, "BSTAR": 0.0016876649, "MEAN_MOTION_DOT": 0.00015714, "MEAN_MOTION_DDOT": 0}, "tle": {"line1": "1 35594U 93036AMM 25358.57019808  .00015714  00000+0  16877-2 0  9996", "line2": "2 35594  73.8060  82.6068 0028857 193.3523 166.6896 14.88271884883617"}}, "geometry": {"type": "Point", "coordinates": [-28.31267116977367, -73.10701982280463]}}, {"type": "Feature", "properties": {"norad_id": 35602, "name": "COSMOS 2251 DEB", "group": "cosmos-2251-debris", "lat": -21.522053948836557, "lon": -21.041052022108193, "alt_km": 405.22998048298814, "timestamp": "2025-12-26T13:39:19.376386+00:00", "meta": {"OBJECT_NAME": "COSMOS 2251 DEB", "OBJECT_ID": "1993-036AMV", "EPOCH": "2025-12-24T17:03:14.860224", "MEAN_MOTION": 15.35551489, "ECCENTRICITY": 0.00882722, "INCLINATION": 73.9941, "RA_OF_ASC_NODE": 156.4571, "ARG_OF_PERICENTER": 219.6047, "MEAN_ANOMALY": 154.0021, "EPHEMERIS_TYPE": 0, "CLASSIFICATION_TYPE": "U", "NORAD_CAT_ID": 35602, "ELEMENT_SET_NO": 999, "REV_AT_EPOCH": 90275, "BSTAR": 0.00063780117, "MEAN_MOTION_DOT": 0.00025119, "MEAN_MOTION_DDOT": 0}, "tle": {"line1": "1 35602U 93036AMV 25358.71058866  .00025119  00000+0  63780-3 0  9995", "line2": "2 35602  73.9941 156.4571 0088272 219.6047 154.0021 15.35551489902758"}}, "geometry": {"type": "Point", "coordinates": [-21.041052022108193, -21.522053948836557]}}]}